H1 CPF 01  gfz 2021 06 06 12  6572 tandemx   
H2 1003001  6202 36605    2021 06 06 12 59 42 2021 06 11 00 00 42   120 1 1  0 0 0
H9
10 0 59373  39582.000000  0    2010919.545  -5545595.433   3548827.527
10 0 59373  39702.000000  0    1970058.146  -5998665.334   2746908.894
10 0 59373  39822.000000  0    1887746.414  -6345769.051   1896615.856
10 0 59373  39942.000000  0    1767337.063  -6580142.040   1012921.007
10 0 59373  40062.000000  0    1612955.557  -6697075.931    111388.921
10 0 59373  40182.000000  0    1429390.260  -6694018.010   -792105.648
10 0 59373  40302.000000  0    1221967.830  -6570626.140  -1681669.141
10 0 59373  40422.000000  0     996417.315  -6328775.719  -2541677.109
10 0 59373  40542.000000  0     758727.983  -5972523.398  -3357054.575
10 0 59373  40662.000000  0     515005.712  -5508028.216  -4113543.341
10 0 59373  40782.000000  0     271328.497  -4943432.515  -4797951.010
10 0 59373  40902.000000  0      33605.912  -4288706.462  -5398376.132
10 0 59373  41022.000000  0    -192553.959  -3555461.145  -5904407.554
10 0 59373  41142.000000  0    -401967.538  -2756733.814  -6307294.753
10 0 59373  41262.000000  0    -589986.294  -1906750.920  -6600087.680
10 0 59373  41382.000000  0    -752593.171  -1020673.605  -6777745.250
10 0 59373  41502.000000  0    -886483.251   -114329.947  -6837213.498
10 0 59373  41622.000000  0    -989127.362    796062.996  -6777471.483
10 0 59373  41742.000000  0   -1058818.258   1694181.588  -6599546.282
10 0 59373  41862.000000  0   -1094698.571   2563880.743  -6306497.053
10 0 59373  41982.000000  0   -1096770.033   3389477.677  -5903369.500
10 0 59373  42102.000000  0   -1065884.326   4156032.328  -5397118.501
10 0 59373  42222.000000  0   -1003714.866   4849617.825  -4796499.261
10 0 59373  42342.000000  0    -912710.716   5457578.438  -4111927.457
10 0 59373  42462.000000  0    -796032.741   5968768.501  -3355307.944
10 0 59373  42582.000000  0    -657472.861   6373766.640  -2539835.268
10 0 59373  42702.000000  0    -501357.955   6665061.773  -1679768.410
10 0 59373  42822.000000  0    -332440.844   6837204.753   -790181.945
10 0 59373  42942.000000  0    -155780.030   6886921.609    113300.766
10 0 59373  43062.000000  0      23388.799   6813184.964   1014788.118
10 0 59373  43182.000000  0     199785.604   6617240.267   1898409.137
10 0 59373  43302.000000  0     368219.194   6302584.133   2748602.496
10 0 59373  43422.000000  0     523717.737   5874897.774   3550397.460
10 0 59373  43542.000000  0     661654.233   5341938.926   4289682.720
10 0 59373  43662.000000  0     777863.800   4713394.704   4953461.765
10 0 59373  43782.000000  0     868747.365   4000689.812   5530082.217
10 0 59373  43902.000000  0     931363.174   3216770.653   6009434.971
10 0 59373  44022.000000  0     963502.058   2375862.464   6383127.625
10 0 59373  44142.000000  0     963744.401   1493205.043   6644625.731
10 0 59373  44262.000000  0     931499.154    584772.386   6789361.177
10 0 59373  44382.000000  0     867023.891   -333017.180   6814806.045
10 0 59373  44502.000000  0     771425.354  -1243596.509   6720515.190
10 0 59373  44622.000000  0     646640.351  -2130548.853   6508134.179
10 0 59373  44742.000000  0     495397.216  -2977903.973   6181372.951
10 0 59373  44862.000000  0     321158.478  -3770428.013   5745943.663
10 0 59373  44982.000000  0     128046.447  -4493898.231   5209464.325
10 0 59373  45102.000000  0     -79246.769  -5135361.656   4581332.896
10 0 59373  45222.000000  0    -295564.292  -5683375.882   3872570.103
10 0 59373  45342.000000  0    -515403.589  -6128223.850   3095628.865
10 0 59373  45462.000000  0    -733045.975  -6462096.285   2264175.964
10 0 59373  45582.000000  0    -942692.340  -6679237.442   1392849.241
10 0 59373  45702.000000  0   -1138603.715  -6776053.552    496995.879
10 0 59373  45822.000000  0   -1315243.273  -6751177.056   -407607.239
10 0 59373  45942.000000  0   -1467413.535  -6605484.197  -1305040.719
10 0 59373  46062.000000  0   -1590386.556  -6342067.873  -2179531.162
10 0 59373  46182.000000  0   -1680024.410  -5966166.917  -3015735.332
10 0 59373  46302.000000  0   -1732886.959  -5485053.091  -3799014.624
10 0 59373  46422.000000  0   -1746323.723  -4907878.461  -4515692.921
10 0 59373  46542.000000  0   -1718547.728  -4245489.002  -5153292.067
10 0 59373  46662.000000  0   -1648690.505  -3510210.525  -5700742.201
10 0 59373  46782.000000  0   -1536837.156  -2715611.595  -6148565.043
10 0 59373  46902.000000  0   -1384040.820  -1876247.690  -6489027.567
10 0 59373  47022.000000  0   -1192316.870  -1007392.710  -6716263.556
10 0 59373  47142.000000  0    -964617.732   -124763.339  -6826364.119
10 0 59373  47262.000000  0    -704787.962    755760.190  -6817437.044
10 0 59373  47382.000000  0    -417499.927   1618412.300  -6689635.267
10 0 59373  47502.000000  0    -108172.527   2447816.755  -6445154.426
10 0 59373  47622.000000  0     217127.075   3229254.700  -6088200.973
10 0 59373  47742.000000  0     551799.015   3948923.666  -5624928.153
10 0 59373  47862.000000  0     888839.795   4594180.790  -5063339.416
10 0 59373  47982.000000  0    1220983.319   5153768.647  -4413162.326
10 0 59373  48102.000000  0    1540852.466   5618019.657  -3685690.678
10 0 59373  48222.000000  0    1841117.552   5979032.684  -2893596.848
10 0 59373  48342.000000  0    2114658.393   6230819.243  -2050717.375
10 0 59373  48462.000000  0    2354726.664   6369415.296  -1171813.328
10 0 59373  48582.000000  0    2555104.161   6392953.786   -272309.254
10 0 59373  48702.000000  0    2710252.727   6301695.110    631983.050
10 0 59373  48822.000000  0    2815451.809   6098015.004   1525149.489
10 0 59373  48942.000000  0    2866920.112   5786350.420   2391461.818
10 0 59373  49062.000000  0    2861918.566   5373104.202   3215662.772
10 0 59373  49182.000000  0    2798832.040   4866510.567   3983242.126
10 0 59373  49302.000000  0    2677227.496   4276465.838   4680698.279
10 0 59373  49422.000000  0    2497884.673   3614325.244   5295779.628
10 0 59373  49542.000000  0    2262801.503   2892675.061   5817696.341
10 0 59373  49662.000000  0    1975176.435   2125087.530   6237305.063
10 0 59373  49782.000000  0    1639365.155   1325860.425   6547265.144
10 0 59373  49902.000000  0    1260812.848    509746.290   6742160.518
10 0 59373  50022.000000  0     845964.595   -308320.157   6818587.467
10 0 59373  50142.000000  0     402155.367  -1113494.219   6775211.864
10 0 59373  50262.000000  0     -62519.968  -1891291.084   6612791.523
10 0 59373  50382.000000  0    -539354.472  -2627846.367   6334163.415
10 0 59373  50502.000000  0   -1019191.584  -3310164.124   5944195.802
10 0 59373  50622.000000  0   -1492598.096  -3926346.678   5449706.860
10 0 59373  50742.000000  0   -1950047.926  -4465805.211   4859353.508
10 0 59373  50862.000000  0   -2382114.599  -4919448.750   4183487.604
10 0 59373  50982.000000  0   -2779667.344  -5279846.324   3433978.799
10 0 59373  51102.000000  0   -3134064.652  -5541356.424   2624006.217
10 0 59373  51222.000000  0   -3437341.157  -5700220.861   1767825.328
10 0 59373  51342.000000  0   -3682384.454  -5754622.477    880513.407
10 0 59373  51462.000000  0   -3863097.258  -5704703.955    -22302.316
10 0 59373  51582.000000  0   -3974540.586  -5552547.322   -924727.882
10 0 59373  51702.000000  0   -4013054.000  -5302113.923  -1810891.922
10 0 59373  51822.000000  0   -3976349.524  -4959145.700  -2665233.547
10 0 59373  51942.000000  0   -3863576.975  -4531031.233  -3472781.931
10 0 59373  52062.000000  0   -3675359.186  -4026640.967  -4219421.195
10 0 59373  52182.000000  0   -3413797.506  -3456137.025  -4892135.608
10 0 59373  52302.000000  0   -3082448.097  -2830762.181  -5479231.673
10 0 59373  52422.000000  0   -2686270.051  -2162613.071  -5970532.960
10 0 59373  52542.000000  0   -2231547.207  -1464403.527  -6357546.517
10 0 59373  52662.000000  0   -1725784.362   -749221.704  -6633598.800
10 0 59373  52782.000000  0   -1177581.216    -30286.511  -6793938.563
10 0 59373  52902.000000  0    -596487.560    679291.532  -6835808.572
10 0 59373  53022.000000  0       7159.995   1366743.087  -6758488.135
10 0 59373  53142.000000  0     622416.593   2019863.448  -6563303.951
10 0 59373  53262.000000  0    1237922.427   2627224.522  -6253612.267
10 0 59373  53382.000000  0    1842108.577   3178372.496  -5834747.295
10 0 59373  53502.000000  0    2423410.257   3664007.615  -5313938.203
10 0 59373  53622.000000  0    2970485.559   4076142.712  -4700195.473
10 0 59373  53742.000000  0    3472436.110   4408240.039  -4004166.837
10 0 59373  53862.000000  0    3919025.780   4655322.177  -3237962.512
10 0 59373  53982.000000  0    4300893.020   4814053.820  -2414951.430
10 0 59373  54102.000000  0    4609750.122   4882791.414  -1549531.160
10 0 59373  54222.000000  0    4838566.360   4861601.071   -656876.686
10 0 59373  54342.000000  0    4981729.162   4752240.885    247330.432
10 0 59373  54462.000000  0    5035176.668   4558108.832   1147183.740
10 0 59373  54582.000000  0    4996501.573   4284158.940   2026838.624
10 0 59373  54702.000000  0    4865023.351   3936785.613   2870800.637
10 0 59373  54822.000000  0    4641823.445   3523677.848   3664207.691
10 0 59373  54942.000000  0    4329743.645   3053648.960   4393097.899
10 0 59373  55062.000000  0    3933349.992   2536446.444   5044657.845
10 0 59373  55182.000000  0    3458861.846   1982546.823   5607449.561
10 0 59373  55302.000000  0    2914046.522   1402940.037   6071608.132
10 0 59373  55422.000000  0    2308086.610    808908.271   6429009.031
10 0 59373  55542.000000  0    1651420.770    211805.179   6673403.012
10 0 59373  55662.000000  0     955561.329   -377159.716   6800520.541
10 0 59373  55782.000000  0     232890.490   -947131.466   6808143.162
10 0 59373  55902.000000  0    -503560.702  -1487809.692   6696139.005
10 0 59373  56022.000000  0   -1240347.212  -1989634.586   6466464.258
99
